CSS (TIANHE)            
1 48274U 21035A   23316.32819935  .00032888  00000+0  37372-3 0  9994
2 48274  41.4721 333.9811 0003698 122.6552 237.4644 15.61619869144992
